name,address,tags,website,phone,infos_url,latitude,longitude
100% Le Bar à Jus,"2 rue Saint Jean
68000 Colmar",gluten-free,,06 47 24 47 44,http://vegoresto.fr/resto/100-le-bar-a-jus,48.0741097,7.3569445
2 sous de table,"56 rue de Gand
59000 Lille",,http://www.2sousdetable.com,03 62 57 11 25,http://vegoresto.fr/resto/2-sous-de-table,50.6425671,3.0667459
3 Bio,"44 rue de Provence
75009 Paris","vegetarian, gluten-free",,01 42 06 05 99,http://vegoresto.fr/resto/3-bio,48.8744083,2.3360582
42 degrés,"109, rue du faubourg Poissonnière
75009 Paris",vegan,42degres.com/,09 73 65 77 88,http://vegoresto.fr/resto/42-degres,48.8776168,2.3489116
A Braijade Meridiounale,"66 rue longue
06500 Menton","vegetarian, vegan, gluten-free",www.abraijade.fr/,04 93 35 65 65,http://vegoresto.fr/resto/a-braijade-meridiounale,43.7784981,7.5068617
Ah la belle histoire,"3 bis rue du Général Morvan
29900 Concarneau",vegan,,02 98 97 56 43,http://vegoresto.fr/resto/ah-la-belle-histoire,47.8733116,-3.9185307
Al Saj,"5 rue Motte Fablet
35000 Rennes",vegetarian,,02 99 79 08 36,http://vegoresto.fr/resto/al-saj,48.1140527,-1.67949
Ammendola,83400 Hyeres,vegan,,06 63 96 93 53,http://vegoresto.fr/resto/ammendola,43.107465,6.1314928
Arbol,"4, rue de la Merci
33000 Bordeaux",,www.arbol-restaurant.com/,06 33 51 85 52,http://vegoresto.fr/resto/arbol,44.8388748,-0.5734064
Arts Thés Miss,"19 rue des Révennes
06600 Vieil-Antibes","vegetarian, vegan, gluten-free",www.artsthesmiss.sitew.com/#Accueil.A,06 63 42 85 24,http://vegoresto.fr/resto/arts-thes-miss,43.580418,7.125102
Au bon marché,"12 place du Châtelet
45000 Orléans","vegetarian, vegan",www.aubonmarche-orleans.com/,02 38 53 04 35,http://vegoresto.fr/resto/au-bon-marche,47.8991595,1.9066651
Au Potiron,"24 rue Sainte-Madeleine
67000 Strasbourg","vegetarian, vegan",,03 88 35 49 86,http://vegoresto.fr/resto/au-potiron,48.5789394,7.7548005
Auberge du Vernolon,"Le Vernolon
42220 Colombier",,www.aubergeduvernolon.fr/,04 77 51 50 07,http://vegoresto.fr/resto/auberge-du-vernolon,45.360295,4.594166
Aux Mignardises Saint-Jean,"20 rue saint jean 
62520 Le Touquet","vegetarian, vegan, gluten-free",,03 21 05 36 21,http://vegoresto.fr/resto/aux-mignardises-saint-jean,50.5242281,1.5835963
Basilic Instant,"93 rue des Granges
25000 Besançon","vegetarian, vegan, gluten-free",basilic-instant.e-monsite.com/,03 81 83 17 78,http://vegoresto.fr/resto/basilic-instant,47.2369769,6.0286188
BATbat (Colomiers),"Allée Olympe de Gouges
31770 Colomiers","vegetarian, vegan",www.batbat.fr/,05 61 42 24 22,http://vegoresto.fr/resto/batbat-colomiers,43.5948781,1.3533343
BATbat (Toulouse),"8 rue des Filatiers
31000 Toulouse","vegetarian, vegan",www.batbat.fr/,05 61 25 49 49,http://vegoresto.fr/resto/batbat-toulouse,43.5981845,1.4442782
Bêtises et Volup’thé,"79 rue des Granges
25000 Besançon","vegetarian, vegan, gluten-free",,03 81 50 83 45,http://vegoresto.fr/resto/betises-volupthe,47.2371425,6.0275741
Biofresh,"36 rue de l&#039;Arsenal
68100  Mulhouse","vegan, gluten-free",,03 69 07 36 31,http://vegoresto.fr/resto/biofresh,47.7468644,7.333629
Bis2Fly,"19 rue Nicolas Leblanc
59000 Lille",gluten-free,http://www.bis2fly.com/,09 72 45 09 95,http://vegoresto.fr/resto/bis2fly,50.6296016,3.0617998
Bistrot et Chocolat,"8 rue de la Râpe
67000 Strasbourg","vegetarian, vegan, gluten-free",www.bistrotetchocolat.net/,03 88 36 39 60,http://vegoresto.fr/resto/bistrot-et-chocolat,48.5815328,7.7529616
BOQ,"5, Place de Bretagne
35000 Rennes",gluten-free,http://www.boq-restaurant.fr/,02 99 54 95 91,http://vegoresto.fr/resto/boq,48.1094967,-1.683626
Brasserie Lola,"99 rue du Théâtre
75015 Paris","vegan, gluten-free",,01 45 78 22 35,http://vegoresto.fr/resto/brasserie-lola,48.8468432,2.2937027
Byblos,"24 rue du onze novembre
42100 Saint-Étienne",,,09 54 89 42 12,http://vegoresto.fr/resto/byblos,45.428271,4.3902047
C. Com Café (Brest),"26 rue de Siam
29200 Brest",,http://ccomcafe.com/,02 98 85 14 46,http://vegoresto.fr/resto/c-com-cafe-brest,48.3860054,-4.4920536
C. Com Café (Quimper),"9 quai Port au Vin 
29000 Quimper",,http://ccomcafe.com/,02 98 95 81 62,http://vegoresto.fr/resto/c-com-cafe-quimper,47.9950227,-4.1057103
Café Ginger,"9 rue Jacques Cœur
75004 Paris","vegan, gluten-free",www.cafe-ginger.fr,06 75 05 63 70,http://vegoresto.fr/resto/cafe-ginger,48.8528822,2.3673278
Caravanserail Café,"10 rue du 4 août 1789
69100 Villeurbanne","vegetarian, vegan, gluten-free",www.caravanserail-cafe.com/,09 52 46 45 38,http://vegoresto.fr/resto/caravanserail-cafe,45.7637861,4.8750136
Carmen Ragosta Mode et Cuisine,"8 rue de la Grange aux Belles
75010 Paris","vegan, gluten-free",http://www.carmenragosta.com/,01 42 49 00 71,http://vegoresto.fr/resto/carmen-ragosta-mode-et-cuisine,48.8733032,2.3647123
Carottes et gingembre,"36 Rue des Bancs
17400 Saint Jean d&#039;Angély","vegetarian, vegan, gluten-free",www.carottesgingembre.fr,05 46 33 90 57,http://vegoresto.fr/resto/carottes-et-gingembre,45.9428891,-0.5217721
Casse-Noisette,"92 rue Docteur Vigne
76600 Le Havre","vegetarian, gluten-free",cassenoisettevegetarien.com,09 83 77 58 04,http://vegoresto.fr/resto/casse-noisette,49.4978279,0.1116805
Color Vegan,"23 rue Pailleron
69004 Lyon",vegan,,07 81 81 18 14,http://vegoresto.fr/resto/color-vegan,45.7795252,4.8344111
Crêperie du Port,"32 rue du Port
56000 Vannes",,,02 97 43 40 57,http://vegoresto.fr/resto/creperie-du-port,47.6528155,-2.7594429
Cru en Elle,"Arquejols
43340 Rauret",gluten-free,http://www.cuisine-cruenelle.com/,06 28 07 12 79,http://vegoresto.fr/resto/cru-en-elle,44.806864,3.823243
Cuisine Verte,50000 Saint-Lô,"vegetarian, gluten-free",http://cuisine-verte.com/,07 60 13 13 73,http://vegoresto.fr/resto/cuisine-verte,49.1154686,-1.0828136
De Rode Koe,"85 rue de la Monnaie
59000 Lille","vegetarian, vegan",,09 73 54 79 83,http://vegoresto.fr/resto/de-rode-koe,50.6416511,3.0617516
Declic’Salade,"11 rue du Verdon
67100 Strasbourg",,http://declicsalade.fr/,03 68 62 02 12,http://vegoresto.fr/resto/declicsalade,48.5506921,7.7373544
Delhi Délice,"22 rue Félibre Gaut
13100 Aix-en-Provence",,http://www.delhidelice.fr/,04 42 26 53 06,http://vegoresto.fr/resto/delhi-delice,43.5287445,5.4468156
Des Merveilles dans la Théière,"270 rue des Fusillés 
59650 Villeneuve d&#039;Ascq","vegetarian, vegan, gluten-free",http://dmerveilles.com/,03 62 13 23 05,http://vegoresto.fr/resto/des-merveilles-dans-la-theiere,50.6088221,3.1638427
Do It Yourself Café,"1 boulevard Bigo Danel
59000 Lille",vegan,,Pas de téléphone.,http://vegoresto.fr/resto/do-it-yourself-cafe,50.6275538,3.0420281
Dune,"20 rue Keller
75011 Paris",,http://www.duneparis.fr/,01 43 57 83 15,http://vegoresto.fr/resto/dune,48.8548579,2.3760888
D’Ile en ile,"104 avenue Mourain
L&#039;Herbaudière
85330 Île de Noirmoutier",,www.dileenilenoirmoutier.com/,02 51 39 64 47,http://vegoresto.fr/resto/dile-en-ile,47.0187693,-2.2970561
Ed’s Kitchen,74140 Excenevex,,edskitchen.blogspot.fr/,06 31 75 86 10,http://vegoresto.fr/resto/eds-kitchen,46.354408,6.35295
Elfie,"66 avenue Félix Faure
69003 Lyon",gluten-free,,04 78 42 68 13,http://vegoresto.fr/resto/elfie,45.7528665,4.8542937
FoodLinK,68100 Mulhouse,"vegan, gluten-free",,06 25 81 12 13,http://vegoresto.fr/resto/foodlink,47.7413496,7.3456857
Ganesha,"46, rue de Zurich
67000 Strasbourg",,www.restaurantganesha.com,03 88 35 39 14,http://vegoresto.fr/resto/ganesha,48.5794446,7.7581431
Gentle Gourmet Café,"24 Boulevard de la Bastille
75012 Paris","vegan, gluten-free",www.gentlegourmetcafe.com/,01 43 43 48 49,http://vegoresto.fr/resto/gentle-gourmet-cafe,48.849026,2.3682651
Gourmet d’Asie,"Rue Van Artevelde 14
1000 Bruxelles",,,25031357,http://vegoresto.fr/resto/gourmet-dasie,50.8484557,4.3473484
Grand Appétit,"9 rue de la Cerisaie
75004 Paris",vegan,legrandappetit.fr/index.php,01 40 27 04 95,http://vegoresto.fr/resto/grand-appetit,48.8516549,2.366406
Greedy,"62 - 64 rue du Hâ
33000 Bordeaux","vegetarian, vegan, gluten-free",,05 35 38 41 18,http://vegoresto.fr/resto/greedy,44.8359895,-0.5783287
Greedy Guts,"15 rue de bras
14000 Caen","vegetarian, vegan",restaurant-vegetarien-vegan-normandie.fr/,02 31 93 38 52,http://vegoresto.fr/resto/greedy-guts,49.1823554,-0.3648305
GreenDeliss,"11 avenue du Maréchal Foch
13004 Marseille","vegetarian, vegan",www.greendeliss.fr/,04 88 00 08 60,http://vegoresto.fr/resto/greendeliss,43.3020502,5.3978528
GRRRfood,"Halles de Sérignan
Boulevard Voltaire
34410 Sérignan","vegetarian, vegan",grrrfood.blogspot.fr/,07 83 13 11 67,http://vegoresto.fr/resto/grrrfood,43.2821456,3.2791296
Guantanamera,"47 rue Pajol
75018 paris",,http://www.guantanamera.fr/,09 54 78 48 81,http://vegoresto.fr/resto/guantanamera,48.8890181,2.3623197
Hank,"55 rue des Archives
75003 Paris","vegan, gluten-free",www.hankburger.com/,09 72 44 03 99,http://vegoresto.fr/resto/hank,48.8615751,2.3582934
Himalaya,"17 rue Benoît Bunico
06300 Nice",,,09 84 25 44 71,http://vegoresto.fr/resto/himalaya,43.6974435,7.2769037
Indian House,"23 rue Royale
59800 Lille",,http://www.indianhouse.fr/,03 20 31 38 43,http://vegoresto.fr/resto/indian-house,50.6394572,3.0580759
Izba,"11 Cours Fénelon
24000 Périgueux",vegetarian,http://www.restaurant-izba.com/Accueil.html,05 53 09 37 51,http://vegoresto.fr/resto/izba,45.182301,0.7199462
Jin Ji Table Coréenne,"23 rue des Mines
31700 Blagnac",,http://www.jinjiresto.com/,05 61 15 71 00,http://vegoresto.fr/resto/jin-ji-table-coreenne,43.6362749,1.3915591
Kogi,"36 Rue de l&#039;Empereur
45000 Orléans",,http://www.restaurant-orleans-kogi.fr/restaurant-orleans,09 50 00 04 48,http://vegoresto.fr/resto/kogi,47.8997588,1.9079079
Krishna,"13 Rue Delescluze
87000 Limoges",,restaurant-krishna.e-monsite.com/,05 55 33 19 76,http://vegoresto.fr/resto/krishna,45.8274053,1.2616544
La Baie du Dragon,"8 place Notre-Dame du Mont
13006 Marseille",,,04 91 92 74 78,http://vegoresto.fr/resto/la-baie-du-dragon,43.2920007,5.3835895
La Belle Verte,"50 rue d&#039;Aubuisson
31000 Toulouse","vegetarian, vegan, gluten-free",labellevertebio.com,05 61 62 73 42,http://vegoresto.fr/resto/la-belle-verte,43.6029589,1.4538
La BerGamoThée,"1 place du Mazet
63000 Clermont-Ferrand","vegetarian, vegan, gluten-free",www.labergamothee.fr/,06 43 97 77 70,http://vegoresto.fr/resto/la-bergamothee,45.7794131,3.0844248
La CaraVegan,"87 route de Monlon
Camping Du Gaoucher
40560 Vielle Saint Girons",vegan,www.lacaravegan.eu,06 01 71 06 30,http://vegoresto.fr/resto/la-caravegan,43.9037325,-1.2918567
La Casa Della Piadina,"52 rue Gioffredo
06000 Nice",,,04 22 09 58 55,http://vegoresto.fr/resto/la-casa-della-piadina,43.69897,7.2721078
La Corée,"40 avenue Jean Jaurès
69007 Lyon",,restolacoree.com,09 82 27 82 15,http://vegoresto.fr/resto/la-coree,45.7509798,4.8450247
La cuisine de Johanna,"44 Cours Anatole France
33000 Bordeaux","vegetarian, vegan",www.lacuisinedejohanna.com/,05 56 35 81 03,http://vegoresto.fr/resto/la-cuisine-de-johanna,44.8355503,-0.5836331
La Cuisine Mobile,84400 Apt,"vegetarian, gluten-free",,06 52 69 62 65,http://vegoresto.fr/resto/la-cuisine-mobile,43.8728272,5.4149003
La Flambée des Mille Poètes,"2 b Avenue Elie Sermet
11100 Narbonne",gluten-free,http://restomillepoetes.unblog.fr/,04 68 65 15 87,http://vegoresto.fr/resto/la-flambee-des-mille-poetes,43.1871086,3.0088753
La Folie Douce,"111 Boulevard de Ménilmontant
75011 Paris","vegetarian, vegan, gluten-free",lafoliedoucebar.free.fr/accueil.html,06 77 45 80 30,http://vegoresto.fr/resto/la-folie-douce,48.8652807,2.3841781
La Maison du Vert,"Le bourg
61120 Ticheville",vegetarian,http://www.maisonduvert.com/index_f.htm,02 33 36 95 84,http://vegoresto.fr/resto/la-maison-du-vert,48.9093063,0.2632581
La Maison Thaï,"85 rue Masséna
69006 Lyon",,www.lamaisonthai.fr/,04 78 24 85 45,http://vegoresto.fr/resto/la-maison-thai,45.7665634,4.8549878
La Parenthèse,"26 rue de la Justice
68100 Mulhouse","vegetarian, vegan, gluten-free",,03 89 56 08 47,http://vegoresto.fr/resto/la-parenthese,47.7481484,7.341099
La Pause Quinoa,"33 rue du jeu des enfants
67000 Strasbourg","vegetarian, vegan, gluten-free",,09 50 66 20 64,http://vegoresto.fr/resto/la-pause-quinoa,48.5837877,7.7427599
Ardèche.,Sud de l&#039,"vegan, gluten-free",,06 62 43 81 25,4.3770704,La Pause Verte,44.5981671
La Provinciale,"Route de Draguignan
Rés. le grand chemin
06530 Le Tignet",,www.laprovincialepizzas.fr/,04 93 09 35 93,http://vegoresto.fr/resto/la-provinciale,43.639995,6.846153
La révolution verte,"5 rue du théâtre
66000 Perpignan","vegan, gluten-free",,06 95 30 00 66,http://vegoresto.fr/resto/la-revolution-verte,42.6983003,2.8962433
La Romana,"11 avenue Pierre Renaudel
83400 Hyères","vegetarian, vegan, gluten-free",laromana-hyeres.com/,04 94 57 45 07,http://vegoresto.fr/resto/la-romana,43.109366,6.1262097
La Saigonnaise,"2 place de la Madeleine
56000 Vannes",,http://www.la-saigonnaise.com/,02 97 68 49 80,http://vegoresto.fr/resto/la-saigonnaise,47.6591887,-2.7714863
La Soupape,"187, av. Gambetta
16000 Angoulême",,,09 86 27 34 98,http://vegoresto.fr/resto/la-soupape,45.6500903,0.1608885
La Table des Roy,"4 rue des Trois Croissants
44000 Nantes",gluten-free,www.latabledesroy.fr/,02 40 20 33 86,http://vegoresto.fr/resto/la-table-des-roy,47.2167998,-1.5548616
La table du Petit Chaouen,"27 rue des soeurs Macaron
54000 Nancy","vegetarian, vegan",,03 83 32 17 64,http://vegoresto.fr/resto/la-table-du-petit-chaouen,48.6885731,6.1849016
La tête de chou,"14 rue des 3 rois
68100 Mulhouse","vegetarian, vegan",www.tetedechou.fr/,03 89 46 22 17,http://vegoresto.fr/resto/la-tete-de-chou,47.7443154,7.334278
La Vegan Mobile,"Coulaine
49170 Savennières","vegan, gluten-free",,06 65 61 79 20,http://vegoresto.fr/resto/la-vegan-mobile,47.4269346,-0.7579788
La Vie est Belle,"41  rue Jean Jaurès
42300 Roanne",gluten-free,,06 15 32 38 85,http://vegoresto.fr/resto/la-vie-est-belle,46.0343753,4.0744029
Las Vegans,"30 boulevard Bonne Nouvelle
75010 Paris",vegan,,à venir,http://vegoresto.fr/resto/las-vegans,48.8707923,2.3499013
Le Bistrot de l’Ile,"17 rue de la Tour d&#039;Auvergne
44200 Nantes","vegetarian, vegan, gluten-free",http://le-bistrot-de-l-ile.blogspot.fr/,02 40 47 92 35,http://vegoresto.fr/resto/le-bistrot-de-lile,47.2065125,-1.5548494
Le Capoul,"13 place Wilson
31000 Toulouse",,http://www.capoul.com/,05 61 21 08 27,http://vegoresto.fr/resto/le-capoul,43.6051529,1.4468241
Le Cèdre,"20 rue Kervegan
44000 Nantes",,www.lecedre-restaurant.fr/,02 40 20 15 61,http://vegoresto.fr/resto/le-cedre,47.2130494,-1.5555827
Le Cedrus,"2271 corniche Georges Pompidou
83500 La Seyne sur Mer",,,04 89 29 34 72,http://vegoresto.fr/resto/le-cedrus,43.0807073,5.8940199
Le coq à l’âne,"17 place du Général de Gaulle
56000 Vannes",,,02 97 42 56 74,http://vegoresto.fr/resto/le-coq-a-lane,47.6584591,-2.7536984
Le Cosmopolis,"15 rue Saint François
33000 Bordeaux",gluten-free,,09 52 38 80 54,http://vegoresto.fr/resto/le-cosmopolis,44.8344656,-0.5676783
Le Domaine de la Reynaude,"Les Sonnaillets
13121 Aurons",,http://www.domainedelareynaude.com/fr/,04 90 59 30 24,http://vegoresto.fr/resto/le-domaine-de-la-reynaude,43.664817,5.1555419
Le Girouet,"14 Quai du Châtelet
45000 Orléans",,http://www.legirouet.com/,02 38 81 07 14,http://vegoresto.fr/resto/le-girouet,47.8981173,1.9120278
Le Grenier de Notre-Dame,"18 rue de la Bûcherie
75005 Paris","vegetarian, vegan",http://www.legrenierdenotredame.fr/,01 43 29 98 29,http://vegoresto.fr/resto/le-grenier-de-notre-dame,48.8519396,2.3484647
Le haricot vivant,"15 avenue du Pinsan
33370 Artigues","vegetarian, vegan, gluten-free",leharicotvivant.com,06 03 62 08 40,http://vegoresto.fr/resto/le-haricot-vivant,44.8597164,-0.4896546
Lê Lai,"29 Cours John Fitzgerald Kennedy
35000 Rennes",,,02 99 54 07 38,http://vegoresto.fr/resto/le-lai,48.1214174,-1.7089775
Le Lift,"5 rue de la Poterne
45000 Orléans",,http://www.restaurant-le-lift.com/la_carte.php,02 38 62 40 00,http://vegoresto.fr/resto/le-lift,47.8986733,1.9093066
Le Liquium,"71 rue Jeanne d&#039;Arc
59000 Lille",vegan,,03 62 92 91 41,http://vegoresto.fr/resto/le-liquim,50.624249,3.0644182
Le Mâchon fin,"52 rue de la Poste
69220 Belleville-sur-Saône",,www.lemachonfin.fr/,04 74 66 28 06,http://vegoresto.fr/resto/le-machon-fin,46.1105745,4.7507092
Le Mékong d’Or,"11 rue des Tanneurs
70400 Héricourt",,http://lemekongdor.com/,03 84 56 84 17,http://vegoresto.fr/resto/le-mekong-dor,47.575489,6.7596139
Le Pigeonnier du Perron,"Lieu dit Le Perron
86530 Availles En Châtellerault",gluten-free,http://www.lepigeonnierduperron.com/fr/,05 49 19 76 08,http://vegoresto.fr/resto/le-pigeonnier-du-perron,46.757621,0.568742
Le Potager de Charlotte,"12 rue de la Tour d&#039;Auvergne
75009 Paris","vegan, gluten-free",http://lepotagerdecharlotte.fr/,01 44 65 09 63,http://vegoresto.fr/resto/le-potager-de-charlotte,48.8790612,2.3447297
Le Potager du Marais,"24 rue Rambuteau
75003 Paris","vegan, gluten-free",http://www.lepotagerdumarais.fr/Potager_du_Marais/Le_Potager_du_Marais.html,01 57 40 98 57,http://vegoresto.fr/resto/le-potager-du-marais,48.8610455,2.3540283
Le P’tit Ogre,"1 rue des Pénitents Gris
31000 Toulouse",,http://www.restaurant-petit-ogre.com/,06 51 63 73 21,http://vegoresto.fr/resto/le-ptit-ogre,43.6055946,1.442558
Le Roi Falafel,"30 Rue Palais Grillet
69002 Lyon",,www.le-roi-falafel.com/,04 69 67 31 97,http://vegoresto.fr/resto/le-roi-falafel,45.7619768,4.8351385
Le Saint Germain Des Champs,"12 rue du Vau Saint Germain
35000 Rennes","vegetarian, gluten-free",,02 99 79 25 52,http://vegoresto.fr/resto/le-saint-germain-des-champs,48.1106624,-1.6770265
Le Saint-Exupéry,"8 rue des Orfèvres
56000 Vannes",,,02 97 47 28 18,http://vegoresto.fr/resto/le-saint-exupery,47.6569274,-2.7575202
Le Samovar,"18 rue Camille Sauvageau
33800 Bordeaux",vegetarian,http://www.lesamovar.ouvaton.org/,05 56 74 47 91,http://vegoresto.fr/resto/le-samovar,44.8333505,-0.5648239
Le Sarah B.,"9 quai Saint-Antoine
56130 La Roche-Bernard",,http://www.lesarahb.fr/Accueil.html,02 99 90 74 60,http://vegoresto.fr/resto/le-sarah-b,47.5176743,-2.3032741
Le Shanti,"69 rue Berbisey
21000 Dijon",vegetarian,http://leshanti.unblog.fr/,09 81 09 09 31,http://vegoresto.fr/resto/le-shanti,47.3175914,5.0348979
Le soleil d’Asmara,"4 rue Delille
06000 Nice",,http://www.lesoleildasmarachezelsa.com/,04 93 76 84 18,http://vegoresto.fr/resto/le-soleil-dasmara,43.7012641,7.2773397
Le Speakeasy,"7 rue Lamartine
06000 Nice","vegan, gluten-free",,04 93 85 59 50,http://vegoresto.fr/resto/le-speakeasy,43.7016506,7.2691703
Le Stammtisch,"1 place Turenne
68230 Turckheim",,,03 89 27 55 04,http://vegoresto.fr/resto/le-stammtisch,48.0866344,7.2781693
Le Touareg,"22 Rue des Marchands
68000 Colmar",,,03 89 41 13 01,http://vegoresto.fr/resto/le-touareg,48.0769536,7.3571586
Le Treseaur,"185 avenue du Mont de Boisy
74890 Bons en Chablais","vegetarian, vegan",www.restaurant-bonsenchablais.fr/,04 50 36 33 22,http://vegoresto.fr/resto/le-treseaur,46.2730222,6.3609431
Le Veganovore,"55 rue de Paradis
75010 Paris","vegan, gluten-free",,01 48 24 90 06,http://vegoresto.fr/resto/le-veganovore,48.8755834,2.3487668
Le Yak,"133 Rue François Perrin
87000 Limoges",,,05 55 34 28 82,http://vegoresto.fr/resto/le-yak,45.8272512,1.2397855
Le Yéti,"21 rue de la Colombette
31000 Toulouse",,http://www.restoyeti.com/,05 61 62 80 22,http://vegoresto.fr/resto/le-yeti,43.6044198,1.4526065
Lecocq&Folks,"5 rue St Vincent
56000 Vannes",gluten-free,,02 97 54 19 17,http://vegoresto.fr/resto/lecocqfolks,47.6548095,-2.7580241
Les amants du marché,"1 rue Bourbaki
64000 Pau","vegetarian, vegan, gluten-free",www.lesamantsdumarche.fr/,05 59 02 75 51,http://vegoresto.fr/resto/les-amants-du-marche,43.3031226,-0.3710491
Les carottes sont cuites,"7, rue du moulin
24620 Les Eyzies","vegetarian, gluten-free",,06 45 39 25 52,http://vegoresto.fr/resto/les-carottes-sont-cuites,44.9360513,1.0147169
Les crêpes à Babet’,26 Nyons,"vegetarian, vegan, gluten-free",,06 42 61 24 02,http://vegoresto.fr/resto/les-crepes-a-babet,44.3618809,5.140145
Les délices de Gigi,"67 avenue Ledru Rollin
94170 Le Perreux Sur Marne","vegan, gluten-free",www.lesdelicesdegigi.com/,01 43 24 07 53,http://vegoresto.fr/resto/les-delices-de-gigi,48.84264,2.502401
Les Délices de Leilla,"97 rue de Finlande
81000 Albi","vegan, gluten-free",lacrusinedeleilla.wordpress.com/,06 84 00 65 36,http://vegoresto.fr/resto/les-delices-de-leilla,43.9257895,2.1307147
Les Deux Abbesses,"Le petit couvent
43300 St Arcons d&#039;Allier","vegetarian, vegan, gluten-free",www.lesdeuxabbesses.com/intro/index.html,06 76 82 85 10,http://vegoresto.fr/resto/les-deux-abbesses,45.068254,3.549557
Les Petits Zozios,"35 rue des Jardins
57000 Metz","vegan, gluten-free",www.crusine.org/default.html,06 29 71 49 14,http://vegoresto.fr/resto/les-petits-zozios,49.1220943,6.1779548
Les potes au Feu,"7 place d’Irlande
56860 Séné",gluten-free,http://www.les-potes-au-feu.fr/,02 97 62 15 80,http://vegoresto.fr/resto/les-potes-au-feu,47.6514018,-2.7204961
"Les Puces, Boutique Solidaire","1 Avenue Général de Gaulle
29246 Poullaouen",,,06 89 03 04 62,http://vegoresto.fr/resto/les-puces-boutique-solidaire,48.3395668,-3.641317
Les Remparts,"6 Rue Alexandre le Pontois
56000 Vannes",,,02 97 47 52 44,http://vegoresto.fr/resto/les-remparts,47.6546571,-2.7565117
Lilli et le Vegabon,06000 Nice,"vegetarian, vegan, gluten-free",http://www.lillietlevegabon.com/,06 12 27 87 98,http://vegoresto.fr/resto/lili-et-le-vegabon,43.7101728,7.2619532
Londonewyork,"77 rue de Lodi
13006 Marseille","vegan, gluten-free",,06 20 54 45 92,http://vegoresto.fr/resto/londonewyork,43.2894616,5.387347
Loving Hut Menton,"649 promenade du soleil
06500 Menton",vegan,menton.lovinghut.fr/,04 92 07 32 57,http://vegoresto.fr/resto/loving-hut-menton,43.7700846,7.4934311
Loving Hut Paris,"92 boulevard Beaumarchais
75011 Paris",gluten-free,paris.lovinghut.fr/,01 48 06 43 84,http://vegoresto.fr/resto/loving-hut-paris,48.8598848,2.3678546
Lulu – Graine d’un monde,"12 rue de la Poste
21000 Dijon","vegan, gluten-free",http://www.lulu-dijon.com/,09 86 31 65 46,http://vegoresto.fr/resto/lulu-graine-dun-monde,47.3234548,5.0365145
L’Acoustic,"5 place du Marché Vert
67600 Sélestat","vegetarian, vegan",www.restobiolacoustic.com/,03 88 92 29 40,http://vegoresto.fr/resto/lacoustic,48.2595149,7.4556328
L’Effet Papillon,"22 rue de Douarnenez
29000 Quimper",gluten-free,http://leffet-papillon.blogspot.fr/,02 98 74 29 25,http://vegoresto.fr/resto/leffet-papillon,47.9974667,-4.1097003
L’Entrechoc,"20 place Valencia
56000 Vannes",gluten-free,,09 83 85 53 88,http://vegoresto.fr/resto/lentrechoc,47.6568428,-2.7574101
L’Escargot de Sab,"1 avenue Roger Varrey
89300 Joigny",vegan,www.lescargotdesab.fr/,03 86 62 10 38,http://vegoresto.fr/resto/lescargot-de-sab,47.9806706,3.401498
L’Essentiel,"9 rue Rachais
69003 Lyon",,www.restaurantlessentiel.fr/,04 69 70 88 00,http://vegoresto.fr/resto/lessentiel,45.7519394,4.8541192
L’inattendu(e),"1 rue Biovès
Monaco",gluten-free,http://vitasensys.eu/food/restaurant.php,377 97 98 81 46,http://vegoresto.fr/resto/linattendue,43.7327247,7.4164234
Magnaleda,"6110 Route d&#039;Avignon
13540 Aix-en-Provence",gluten-free,http://www.magnaleda-restaurantbion.com,04 42 28 00 80,http://vegoresto.fr/resto/magnaleda,43.5849462,5.3715324
Manger Autrement,"155 Grande rue Saint-Michel
31400 Toulouse","vegetarian, vegan, gluten-free",www.manger-autrement.com/,05 61 32 68 41,http://vegoresto.fr/resto/manger-autrement,43.5910499,1.4447411
Marcel et Suzon,"6, Grand&#039;Rue
90000 Belfort","vegetarian, gluten-free",,03 63 78 56 63,http://vegoresto.fr/resto/marcel-et-suzon,47.639366,6.863227
Marcovaldo,"61, rue Charlot
75003 Paris",,http://www.marcovaldo.fr/,09 80 44 86 49,http://vegoresto.fr/resto/marcovaldo,48.8637677,2.3633151
Meshur Adiyaman Cigkoftesi (Bourgoin-Jallieu),"88 Rue de la République 
38300 Bourgoin-Jallieu",vegetarian,http://www.adiyamancigkoftecisi.com/,06 12 68 11 91,http://vegoresto.fr/resto/meshur-adiyaman-cigkoftesi-bourgoin-jallieu,45.5855751,5.2720379
Mezzaluna,"10 rue Léon Gambetta
62000 Arras",vegan,mezzalunaarras.com/,03 21 22 89 63,http://vegoresto.fr/resto/mezzaluna,50.2877239,2.7797696
Mon Petit Liban,"64 avenue Garibaldi
87000 Limoges",,http://www.monpetitliban.com/,05 55 79 07 37,http://vegoresto.fr/resto/mon-petit-liban,45.8378012,1.2589972
My Free Kitchen,"1 bis rue Bleue
75009 Paris",gluten-free,http://www.myfreekitchen.com/,01 48 01 67 64,http://vegoresto.fr/resto/my-free-kitchen,48.8756913,2.3477274
My Kitch’n,"82 rue Lemercier
75017 Paris","vegan, gluten-free",www.mykitchn.fr,06 16 15 44 74,http://vegoresto.fr/resto/my-kitchn,48.8886441,2.3204164
Myrtille,"4, Petite rue Saint-Pierre
63000 Clermont-Ferrand",vegetarian,http://www.cafemyrtille.com/,04 73 39 09 97,http://vegoresto.fr/resto/myrtille,45.77906,3.0833577
New Delhi,"5 avenue du Doyenné
69005 Lyon",,,04 72 41 96 37,http://vegoresto.fr/resto/new-delhi,45.7594676,4.8265977
Nou-Noï,"Avenue Frédéric Mistral
83240 Cavalaire-sur-Mer",,,04 94 05 45 53,http://vegoresto.fr/resto/nou-noi,43.1754494,6.5322732
Osaka Box,"19 place Winston Churchill
19100 Brive la Gaillarde",,http://www.osakabox.fr/,05 55 74 00 82,http://vegoresto.fr/resto/osaka-box,45.1568356,1.5361076
Oses Cigkofte (Colmar),"6 Place de la Gare
68000 Colmar",vegetarian,www.osescigkofte.com,03 89 41 08 68,http://vegoresto.fr/resto/oses-cigkofte-colmar,48.0728286,7.3478353
Oulala Traiteur,Paris,"vegan, gluten-free",oulalatraiteur.com/,uniquement par mail,http://vegoresto.fr/resto/oulala,48.856614,2.3522219
Oum Falafel,"rue des Postes
59000 Lille",vegetarian,,06 68 18 09 37,http://vegoresto.fr/resto/oum-falafel,50.6233557,3.0540832
O’Saj Restauration,"15 rue Léon Gambetta
31000 Toulouse",,,05 61 12 48 38,http://vegoresto.fr/resto/osaj-restauration,43.6030644,1.4418074
Pancake Night Fever,"23 rue Gemarre
14000 Caen","vegetarian, vegan, gluten-free",,02 31 80 70 82,http://vegoresto.fr/resto/pancake-night-fever,49.1842329,-0.3643993
Panier Amande,"Dax, Orthez","vegetarian, vegan, gluten-free",www.panieramande.com/,06 87 47 75 52,http://vegoresto.fr/resto/panier-amande,43.708608,-1.051945
Pause Bobun,"3 rue Buffon
75005 Paris",gluten-free,,06 49 84 58 56,http://vegoresto.fr/resto/pause-bobun,48.843093,2.3635507
PH7 Équilibre,"21 rue Le Peletier
75009 Paris","vegetarian, gluten-free",http://www.monph7.com/,09 83 87 95 95,http://vegoresto.fr/resto/ph7-equilibre,48.8729687,2.3383524
Pita Pit (Aix-en-Provence),"56 place Richelme
13100 Aix-en-Provence",gluten-free,http://www.pitapit.fr/index.html#/pita-pit-aix,04 42 69 84 19,http://vegoresto.fr/resto/pita-pit-aix-en-provence,43.5290618,5.4482619
Pita Pit (Caen),"21 Boulevard du Maréchal Leclerc
14 000 Caen",gluten-free,http://www.pitapit.fr/index.html#/pita-pit-caen,02 31 45 36 54,http://vegoresto.fr/resto/pita-pit-caen,49.1824245,-0.3619016
Pita Pit (Lille),"50 rue Massena
59 000 Lille",gluten-free,http://www.pitapit.fr/index.html#/pita-pit-lille,03 20 55 82 94,http://vegoresto.fr/resto/pita-pit-lille,50.6320316,3.055004
Pita Pit (Nantes),"5 place du Commerce
44000 Nantes",gluten-free,http://www.pitapit.fr/index.html#/pita-pit-nantes,02 40 74 60 12,http://vegoresto.fr/resto/pita-pit-nantes,47.2137468,-1.5577092
Pita Pit (Rennes),"8 rue de la Visitation
35000 Rennes",gluten-free,http://www.pitapit.fr/index.html#/home,02 99 63 94 95,http://vegoresto.fr/resto/pita-pit-rennes,48.1143287,-1.6790765
Pulp Kitchen,"106 rue de l&#039;hôpital militaire
59000 Lille",gluten-free,www.pulpkitchen.fr/,03 28 14 18 59,http://vegoresto.fr/resto/pulp-kitchen,50.6364716,3.0592814
Quai 23,"23 quai Sadi-carnot
53000 Laval",,,02 43 53 55 66,http://vegoresto.fr/resto/quai-23,48.0700062,-0.7695374
Relais St Jacques de Compostelle,"Le Bourg
19500 Collonges La Rouge",,www.hotel-stjacques.com/,05 55 25 41 02,http://vegoresto.fr/resto/relais-st-jacques-de-compostelle,45.077972,1.695371
Rest’O,"16 quai de Bacalan 
33300 Bordeaux","vegetarian, gluten-free",http://lerest-o.fr/,09 52 36 71 38,http://vegoresto.fr/resto/resto,44.8573735,-0.5604604
Rise Up’N Shine,"49 cours de l&#039;Argonne
33000 Bordeaux","vegetarian, vegan, gluten-free",,06 11 12 11 35,http://vegoresto.fr/resto/riseup-n-shine,44.8289827,-0.5743264
Roots Vegan Food,59000 Lille,vegan,http://www.rootsveganfood.kingeshop.com/,03 21 39 40 94,http://vegoresto.fr/resto/roots-vegan-food,50.62925,3.057256
Sainte Russie,"12 rue Juiverie
69005 Lyon",,sainterussie.fr/contact.php,04 78 23 90 16,http://vegoresto.fr/resto/sainte-russie,45.7657763,4.827242
Sambahia,"13 rue du Doyenné
69005 Lyon",,//www.sambahia.fr/,04 78 37 82 10,http://vegoresto.fr/resto/sambahia,45.7588171,4.8260128
Saveurs Bio,"22 rue Maurice Fonvieille
31000 Toulouse",,http://www.saveursbio.com,05 61 12 15 15,http://vegoresto.fr/resto/saveurs-bio,43.6037462,1.4495374
Saveurs de l’Inde,"30 ter rue Thiers
56000 Vannes",,,02 97 42 65 07,http://vegoresto.fr/resto/saveurs-de-linde,47.6573305,-2.7596396
Saveurs Nature,"7 rue Paul Massot
66000 Perpignan","vegetarian, vegan, gluten-free",www.albilislesurtarnpo.com/,04 68 52 07 81,http://vegoresto.fr/resto/saveurs-nature,42.6966043,2.8834517
Smart Green Corner,"20 rue Castelnau d&#039;Auros
33000 Bordeaux
","vegetarian, vegan, gluten-free",,05 56 23 17 55,http://vegoresto.fr/resto/smart-green-corner,44.8407178,-0.5817206
Snack Vegan,"rue d&#039;Alsace Lorraine
31000 Toulouse",vegan,,06 42 51 75 43,http://vegoresto.fr/resto/snack-vegan,43.6040106,1.445671
Sol Semilla,"23 rue des Vinaigriers
75010 Paris","vegan, gluten-free",www.sol-semilla.fr/content/7-decouvrez-notre-restaurant,01 42 01 03 44,http://vegoresto.fr/resto/sol-semilla,48.873071,2.362962
Soleil d’Agadir,"5 rue Princesse
59800 Lille",,www.couscous-lille.fr,03 20 31 49 71,http://vegoresto.fr/resto/soleil-dagadir,50.6462097,3.0593564
Soline,"89 rue Paul Bert,
69003 Lyon","vegetarian, gluten-free",www.soline.net/,04 78 60 40 43,http://vegoresto.fr/resto/soline,45.7570246,4.8508666
Soya,"20 rue de la Pierre levée
75011 Paris","vegetarian, vegan, gluten-free",www.soyacantinebio.blogspot.fr/,06 99 52 00 18,http://vegoresto.fr/resto/soya-cantine-bio,48.8681167,2.3702583
Super G bio – La Pause Repas,"876 Chemin de la Farlède
83500 La Seyne sur Mer","vegan, gluten-free",,04 94 87 44 64,http://vegoresto.fr/resto/la-pause-repas,43.1167011,5.8496609
Sushi Pearl,"7 rue Alain le Grand
56000 Vannes",,www.sushipearl.fr/,02 97 54 35 96,http://vegoresto.fr/resto/sushi-pearl,47.6584841,-2.7545219
Sushi Street Café,"24, Boulevard Notre-Dame
13006 Marseille","vegetarian, vegan, gluten-free",,04 91 54 17 90,http://vegoresto.fr/resto/sushi-street-cafe,43.2891108,5.3727901
04 90 70 94 98,,action=licat&amp,http://chateaulemartinet.com/site2.php3?rub=2&amp,id_sc=2,44.1848542,"Château du Martinet<br />
lieu dit le Martinet <br />
3078 route de Vaison la Romaine <br />
84150 Violès",Table Gourmande le Mogador
Terre de Saveurs,"1 rue Saint Michel
84000 Avignon",,http://www.terredesaveursavignon.fr/,04 90 86 68 72,http://vegoresto.fr/resto/terre-de-saveur,43.9421085,4.8113057
Armes 62100 Calais,12 place d&#039,,http://londonbridge-calais.com/,03 21 85 85 79,1.850146,The London Bridge,50.9588985
Tien Hiang,"14 rue Bichat
75010 Paris","vegetarian, vegan",tien-hiang.fr/,01 42 00 08 23,http://vegoresto.fr/resto/tien-hiang,48.8702708,2.3690616
Tout à croquer,"133 rue Anse
69400 Villefranche-sur-Saône",,,04 74 07 09 98,http://vegoresto.fr/resto/tout-a-croquer,45.9844339,4.7183737
Toutes les couleurs,"26 rue Imbert Colomès
69001 Lyon","vegetarian, vegan, gluten-free",touteslescouleurs.fr/,04 72 00 03 95,http://vegoresto.fr/resto/toutes-les-couleurs,45.7714076,4.8353266
Un Parfum d’Oxalis,"72 bis Avenue Garibaldi
87000 Limoges",gluten-free,http://www.unparfumdoxalis.fr/150088054,05 55 10 09 57,http://vegoresto.fr/resto/un-parfum-doxalis,45.8383466,1.2587969
Une Fleur des Champs,"4 rue des Charpentiers
67000 Strasbourg","vegetarian, vegan, gluten-free",http://unefleurdeschamps.fr/,03 90 23 60 60,http://vegoresto.fr/resto/une-fleur-des-champs,48.5844288,7.7515142
Veg Mama,44000 Nantes,vegan,,06 27 44 29 67,http://vegoresto.fr/resto/veg-mama,47.2520457,-1.4995389
Vegalicious,"Marseille, Aix-en Provence et Saint-Paul-lez-Durance","vegetarian, vegan",www.vegalicious.fr/,06 78 07 23 83,http://vegoresto.fr/resto/vegalicious,43.298442,5.3710324
Vegan Folie’s,"53 rue Mouffetard
75005 Paris","vegan, gluten-free",veganfolies.fr/,01 43 37 21 89,http://vegoresto.fr/resto/vegan-folies,48.8434104,2.3496197
Vegan Gorilla,"7 rue du Lycée
06000 Nice","vegan, gluten-free",http://vegan-gorilla.fr/,06 60 75 10 00,http://vegoresto.fr/resto/vegan-gorilla,43.699358,7.2742695
Végébowl,"3 rue de la Boule rouge
75009 Paris","vegetarian, vegan, gluten-free",www.vegebowl.com/index.php,01 42 46 45 89,http://vegoresto.fr/resto/vegebowl,48.8733585,2.3445442
Végétal et Vous,"241 rue Gambetta
59000 Lille",vegetarian,http://www.vegetaletvous.fr/,03 20 51 55 06,http://vegoresto.fr/resto/vegetal-et-vous,50.6283124,3.0525218
Veggyvan,83390 Cuers,vegan,http://veggyvan.fr,06 67 07 79 05,http://vegoresto.fr/resto/veggyvan,43.2618627,6.1314928
Veg’Art,"123 rue Oberkampf
75011 Paris",vegan,http://vegartparis.com/,09 83 87 29 68,http://vegoresto.fr/resto/vegart,48.8661874,2.3790752
Veg’Gaïa,51100 Reims,vegan,,06 20 32 01 71,http://vegoresto.fr/resto/veggaia,49.258329,4.031696
Velicious,"43 rue Geiler
67000 Strasbourg",vegan,http://www.velicious.fr/,09 72 53 07 35,http://vegoresto.fr/resto/velicious,48.5860789,7.7708068
VG,"85 rue Lafayette
75009 Paris","vegetarian, vegan, gluten-free",www.my-vg.fr/,01 44 63 87 37,http://vegoresto.fr/resto/vg,48.8770844,2.3480079
"Vietnam in Paris, Saveurs du Vietnam","48 rue de Clery
75002 Paris",vegetarian,,01 74 64 92 18,http://vegoresto.fr/resto/vietnam-in-paris-saveurs-du-vietnam,48.8683641,2.3478978
Villa Kerasy Hotel Spa,"20 avenue Favrel et Lincy
56000 Vannes",,http://www.villakerasy.com/cuisine-ayurvedique/,02 97 68 36 83,http://vegoresto.fr/resto/villa-kerasy-hotel-spa,47.6642759,-2.7537898
VIP – Pizzeria Italiana,"107 rue Sadi Carnot
59350 Saint André lez Lille",,vipizza.fr,03 20 31 70 77,http://vegoresto.fr/resto/vip-pizzeria-italiana,50.661118,3.0552984
Voici venu le temps,"5 rue de la Cerche
45000 Orléans",,,02 38 43 85 75,http://vegoresto.fr/resto/voici-venu-le-temps,47.9036098,1.9031735
Wally’s Coffee,"19 Place Philippe Lebon
59000 Lille",,http://wallyscoffee.fr/,06 51 50 17 20,http://vegoresto.fr/resto/wallys-coffee,50.6275057,3.0621738
What the Cake ?,"51 rue du fossé des tanneurs 
67000 Strasbourg",gluten-free,http://whatthecake.fr/,03 69 08 21 41,http://vegoresto.fr/resto/what-the-cake,48.582132,7.7431678
Yabio,"19 rue du Garet
69001 Lyon",,http://yabio.fr/,en cours,http://vegoresto.fr/resto/yabio,45.766297,4.8369196
Youna,"10 Bis Rue de l&#039;hôtel de ville
44000 Nantes","vegetarian, vegan",www.restaurant-youna.com/,02 40 12 41 58,http://vegoresto.fr/resto/youna,47.2178618,-1.5566994
